{
"type": "FeatureCollection",
"name": "buildings_3d",
"crs": { "type": "name", "properties": { "name": "urn:ogc:def:crs:OGC:1.3:CRS84" } },
"features": [
{ "type": "Feature", "properties": { "building_id": "BLD001", "height_m": 15.5, "floors": 4, "base_height": 0.0, "extruded_height": 15.5, "provenance": "SYNTHETIC" }, "geometry": { "type": "Polygon", "coordinates": [ [ [ 77.209, 28.6139 ], [ 77.209, 28.6145 ], [ 77.21, 28.6145 ], [ 77.21, 28.6139 ], [ 77.209, 28.6139 ] ] ] } },
{ "type": "Feature", "properties": { "building_id": "BLD002", "height_m": 22.0, "floors": 6, "base_height": 0.0, "extruded_height": 22.0, "provenance": "SYNTHETIC" }, "geometry": { "type": "Polygon", "coordinates": [ [ [ 77.2105, 28.614 ], [ 77.2105, 28.6148 ], [ 77.2118, 28.6148 ], [ 77.2118, 28.614 ], [ 77.2105, 28.614 ] ] ] } },
{ "type": "Feature", "properties": { "building_id": "BLD003", "height_m": 12.0, "floors": 3, "base_height": 0.0, "extruded_height": 12.0, "provenance": "SYNTHETIC" }, "geometry": { "type": "Polygon", "coordinates": [ [ [ 77.212, 28.6135 ], [ 77.212, 28.6142 ], [ 77.213, 28.6142 ], [ 77.213, 28.6135 ], [ 77.212, 28.6135 ] ] ] } }
]
}
