{
  "type": "FeatureCollection",
  "crs": {
    "type": "name",
    "properties": {
      "name": "urn:ogc:def:crs:OGC:1.3:CRS84"
    }
  },
  "features": [
    {
      "type": "Feature",
      "id": "BLDG_TOWER_A",
      "properties": {
        "name": "Vistra Heights - Tower A",
        "parent_parcel_id": "PARCEL_KA_001",
        "base_elevation_m": 920.0,
        "height_m": 18.0,
        "roof_elevation_m": 938.0
      },
      "geometry": {
        "type": "Polygon",
        "coordinates": [
          [
            [77.5918, 12.9718],
            [77.5936, 12.9718],
            [77.5936, 12.9736],
            [77.5918, 12.9736],
            [77.5918, 12.9718]
          ]
        ]
      }
    },
    {
      "type": "Feature",
      "id": "BLDG_TECH_B",
      "properties": {
        "name": "Silicon Innovation Hub",
        "parent_parcel_id": "PARCEL_KA_002",
        "base_elevation_m": 920.0,
        "height_m": 15.0,
        "roof_elevation_m": 935.0
      },
      "geometry": {
        "type": "Polygon",
        "coordinates": [
          [
            [77.5952, 12.9718],
            [77.5972, 12.9718],
            [77.5972, 12.9738],
            [77.5952, 12.9738],
            [77.5952, 12.9718]
          ]
        ]
      }
    }
  ]
}
