{
  "type": "FeatureCollection",
  "crs": {
    "type": "name",
    "properties": {
      "name": "urn:ogc:def:crs:OGC:1.3:CRS84"
    }
  },
  "features": [
    {
      "type": "Feature",
      "id": "P78",
      "properties": {
        "survey_khasra_no": "78/1A",
        "district": "BLR",
        "state": "KA",
        "locality": "Koramangala 5th Block / Outer Ring Road",
        "land_use": "Mixed Commercial / Residential Urban",
        "owner_name": "Bangalore Development Authority (BDA)",
        "base_elevation_m": 920.0,
        "max_elevation_m": 970.0,
        "tenure_type": "FREEHOLD",
        "registered_area_sqm": 2450.0
      },
      "geometry": {
        "type": "Polygon",
        "coordinates": [
          [
            [77.6235, 12.9350],
            [77.6258, 12.9350],
            [77.6258, 12.9368],
            [77.6235, 12.9368],
            [77.6235, 12.9350]
          ]
        ]
      }
    },
    {
      "type": "Feature",
      "id": "P79",
      "properties": {
        "survey_khasra_no": "79/2",
        "district": "BLR",
        "state": "KA",
        "locality": "Outer Ring Road Tech Zone",
        "land_use": "Commercial IT Corridor",
        "owner_name": "Karnataka Industrial Area Development Board (KIADB)",
        "base_elevation_m": 920.0,
        "max_elevation_m": 970.0,
        "tenure_type": "LEASEHOLD",
        "registered_area_sqm": 3100.0
      },
      "geometry": {
        "type": "Polygon",
        "coordinates": [
          [
            [77.6262, 12.9350],
            [77.6288, 12.9350],
            [77.6288, 12.9368],
            [77.6262, 12.9368],
            [77.6262, 12.9350]
          ]
        ]
      }
    }
  ]
}
